{"type": "FeatureCollection", "features": [ {"type": "Feature", "properties": {"norad_id": 37996, "name": "COSMOS 2251 DEB", "group": "cosmos-2251-debris", "lat": 29.132699033932994, "lon": 14.483851353453481, "alt_km": 1008.457686319055, "timestamp": "2025-12-12T11:38:31.810632+00:00", "meta": {"OBJECT_NAME": "COSMOS 2251 DEB", "OBJECT_ID": "1993-036BQX", "EPOCH": "2025-11-16T18:35:00.708864", "MEAN_MOTION": 14.09591608, "ECCENTRICITY": 0.02219827, "INCLINATION": 74.0658, "RA_OF_ASC_NODE": 248.8308, "ARG_OF_PERICENTER": 5.4709, "MEAN_ANOMALY": 354.8776, "EPHEMERIS_TYPE": 0, "CLASSIFICATION_TYPE": "U", "NORAD_CAT_ID": 37996, "ELEMENT_SET_NO": 999, "REV_AT_EPOCH": 55769, "BSTAR": 0.0096790999, "MEAN_MOTION_DOT": 0.00021331, "MEAN_MOTION_DDOT": 0}, "tle": {"line1": "1 37996U 93036BQX 25320.77431376  .00021331  00000+0  96791-2 0  9998", "line2": "2 37996  74.0658 248.8308 0221982   5.4709 354.8776 14.09591608557693"}}, "geometry": {"type": "Point", "coordinates": [14.483851353453481, 29.132699033932994]}}, {"type": "Feature", "properties": {"norad_id": 37998, "name": "COSMOS 2251 DEB", "group": "cosmos-2251-debris", "lat": 64.97490086840462, "lon": 17.771834020318217, "alt_km": 747.1129881045408, "timestamp": "2025-12-12T11:38:31.810642+00:00", "meta": {"OBJECT_NAME": "COSMOS 2251 DEB", "OBJECT_ID": "1993-036BQZ", "EPOCH": "2025-12-07T01:34:33.386016", "MEAN_MOTION": 14.45444842, "ECCENTRICITY": 0.00199405, "INCLINATION": 74.0387, "RA_OF_ASC_NODE": 245.6796, "ARG_OF_PERICENTER": 320.6712, "MEAN_ANOMALY": 39.2997, "EPHEMERIS_TYPE": 0, "CLASSIFICATION_TYPE": "U", "NORAD_CAT_ID": 37998, "ELEMENT_SET_NO": 999, "REV_AT_EPOCH": 64205, "BSTAR": 0.00093558552, "MEAN_MOTION_DOT": 3.277e-05, "MEAN_MOTION_DDOT": 0}, "tle": {"line1": "1 37998U 93036BQZ 25341.06566419  .00003277  00000+0  93559-3 0  9991", "line2": "2 37998  74.0387 245.6796 0019940 320.6712  39.2997 14.45444842642056"}}, "geometry": {"type": "Point", "coordinates": [17.771834020318217, 64.97490086840462]}}, {"type": "Feature", "properties": {"norad_id": 38001, "name": "COSMOS 2251 DEB", "group": "cosmos-2251-debris", "lat": 35.085216882090194, "lon": 144.457762027716, "alt_km": 648.4158476420471, "timestamp": "2025-12-12T11:38:31.810652+00:00", "meta": {"OBJECT_NAME": "COSMOS 2251 DEB", "OBJECT_ID": "1993-036BRC", "EPOCH": "2025-12-10T21:13:30.070848", "MEAN_MOTION": 14.79039652, "ECCENTRICITY": 0.0065474, "INCLINATION": 74.0007, "RA_OF_ASC_NODE": 135.9844, "ARG_OF_PERICENTER": 285.8073, "MEAN_ANOMALY": 230.7209, "EPHEMERIS_TYPE": 0, "CLASSIFICATION_TYPE": "U", "NORAD_CAT_ID": 38001, "ELEMENT_SET_NO": 999, "REV_AT_EPOCH": 74680, "BSTAR": 0.0012082, "MEAN_MOTION_DOT": 9.24e-05, "MEAN_MOTION_DDOT": 0}, "tle": {"line1": "1 38001U 93036BRC 25344.88437582  .00009240  00000+0  12082-2 0  9995", "line2": "2 38001  74.0007 135.9844 0065474 285.8073 230.7209 14.79039652746809"}}, "geometry": {"type": "Point", "coordinates": [144.457762027716, 35.085216882090194]}}, {"type": "Feature", "properties": {"norad_id": 38006, "name": "COSMOS 2251 DEB", "group": "cosmos-2251-debris", "lat": -73.54340577560382, "lon": -63.110481932618605, "alt_km": 733.1465363096995, "timestamp": "2025-12-12T11:38:31.810662+00:00", "meta": {"OBJECT_NAME": "COSMOS 2251 DEB", "OBJECT_ID": "1993-036BRH", "EPOCH": "2025-12-10T03:36:37.956384", "MEAN_MOTION": 14.45867865, "ECCENTRICITY": 0.00758537, "INCLINATION": 73.8744, "RA_OF_ASC_NODE": 42.933, "ARG_OF_PERICENTER": 348.3853, "MEAN_ANOMALY": 11.555, "EPHEMERIS_TYPE": 0, "CLASSIFICATION_TYPE": "U", "NORAD_CAT_ID": 38006, "ELEMENT_SET_NO": 999, "REV_AT_EPOCH": 62922, "BSTAR": 0.0047338847, "MEAN_MOTION_DOT": 0.00017443, "MEAN_MOTION_DDOT": 0}, "tle": {"line1": "1 38006U 93036BRH 25344.15043931  .00017443  00000+0  47339-2 0  9998", "line2": "2 38006  73.8744  42.9330 0075853 348.3853  11.5550 14.45867865629227"}}, "geometry": {"type": "Point", "coordinates": [-63.110481932618605, -73.54340577560382]}}, {"type": "Feature", "properties": {"norad_id": 38054, "name": "COSMOS 2251 DEB", "group": "cosmos-2251-debris", "lat": 71.64100500329869, "lon": 26.112721324756095, "alt_km": 1236.1220275346395, "timestamp": "2025-12-12T11:38:31.810672+00:00", "meta": {"OBJECT_NAME": "COSMOS 2251 DEB", "OBJECT_ID": "1993-036BRL", "EPOCH": "2025-12-06T19:35:06.065952", "MEAN_MOTION": 13.62293123, "ECCENTRICITY": 0.0360398, "INCLINATION": 73.9587, "RA_OF_ASC_NODE": 275.4844, "ARG_OF_PERICENTER": 254.7432, "MEAN_ANOMALY": 133.9151, "EPHEMERIS_TYPE": 0, "CLASSIFICATION_TYPE": "U", "NORAD_CAT_ID": 38054, "ELEMENT_SET_NO": 999, "REV_AT_EPOCH": 67099, "BSTAR": 0.0049752628, "MEAN_MOTION_DOT": 5.934e-05, "MEAN_MOTION_DDOT": 0}, "tle": {"line1": "1 38054U 93036BRL 25340.81604243  .00005934  00000+0  49753-2 0  9993", "line2": "2 38054  73.9587 275.4844 0360398 254.7432 133.9151 13.62293123670997"}}, "geometry": {"type": "Point", "coordinates": [26.112721324756095, 71.64100500329869]}}, {"type": "Feature", "properties": {"norad_id": 38055, "name": "COSMOS 2251 DEB", "group": "cosmos-2251-debris", "lat": -66.2845842427103, "lon": 166.50460690575227, "alt_km": 614.1670203713329, "timestamp": "2025-12-12T11:38:31.810682+00:00", "meta": {"OBJECT_NAME": "COSMOS 2251 DEB", "OBJECT_ID": "1993-036BRM", "EPOCH": "2025-12-11T09:07:57.721152", "MEAN_MOTION": 14.76955256, "ECCENTRICITY": 0.00657701, "INCLINATION": 74.0089, "RA_OF_ASC_NODE": 209.4259, "ARG_OF_PERICENTER": 337.2903, "MEAN_ANOMALY": 200.444, "EPHEMERIS_TYPE": 0, "CLASSIFICATION_TYPE": "U", "NORAD_CAT_ID": 38055, "ELEMENT_SET_NO": 999, "REV_AT_EPOCH": 60662, "BSTAR": 0.0014257024, "MEAN_MOTION_DOT": 0.00010385, "MEAN_MOTION_DDOT": 0}, "tle": {"line1": "1 38055U 93036BRM 25345.38052918  .00010385  00000+0  14257-2 0  9994", "line2": "2 38055  74.0089 209.4259 0065770 337.2903 200.4440 14.76955256606628"}}, "geometry": {"type": "Point", "coordinates": [166.50460690575227, -66.2845842427103]}}, {"type": "Feature", "properties": {"norad_id": 38060, "name": "COSMOS 2251 DEB", "group": "cosmos-2251-debris", "lat": 13.55148517293483, "lon": 111.84198966734645, "alt_km": 704.1381475664812, "timestamp": "2025-12-12T11:38:31.810692+00:00", "meta": {"OBJECT_NAME": "COSMOS 2251 DEB", "OBJECT_ID": "1993-036BRS", "EPOCH": "2025-12-11T05:22:06.825504", "MEAN_MOTION": 14.63841303, "ECCENTRICITY": 0.00580419, "INCLINATION": 74.0431, "RA_OF_ASC_NODE": 298.2163, "ARG_OF_PERICENTER": 44.676, "MEAN_ANOMALY": 315.9062, "EPHEMERIS_TYPE": 0, "CLASSIFICATION_TYPE": "U", "NORAD_CAT_ID": 38060, "ELEMENT_SET_NO": 999, "REV_AT_EPOCH": 71942, "BSTAR": 0.00092465515, "MEAN_MOTION_DOT": 4.921e-05, "MEAN_MOTION_DDOT": 0}, "tle": {"line1": "1 38060U 93036BRS 25345.22369011  .00004921  00000+0  92466-3 0  9996", "line2": "2 38060  74.0431 298.2163 0058041  44.6760 315.9062 14.63841303719426"}}, "geometry": {"type": "Point", "coordinates": [111.84198966734645, 13.55148517293483]}}, {"type": "Feature", "properties": {"norad_id": 38062, "name": "COSMOS 2251 DEB", "group": "cosmos-2251-debris", "lat": 68.53561533355817, "lon": 64.16132780812084, "alt_km": 570.2386636607844, "timestamp": "2025-12-12T11:38:31.810702+00:00", "meta": {"OBJECT_NAME": "COSMOS 2251 DEB", "OBJECT_ID": "1993-036BRU", "EPOCH": "2025-12-06T04:12:38.753856", "MEAN_MOTION": 14.94290132, "ECCENTRICITY": 0.00122346, "INCLINATION": 74.0094, "RA_OF_ASC_NODE": 303.7202, "ARG_OF_PERICENTER": 72.1633, "MEAN_ANOMALY": 298.7726, "EPHEMERIS_TYPE": 0, "CLASSIFICATION_TYPE": "U", "NORAD_CAT_ID": 38062, "ELEMENT_SET_NO": 999, "REV_AT_EPOCH": 62932, "BSTAR": 0.0035053507, "MEAN_MOTION_DOT": 0.00037877, "MEAN_MOTION_DDOT": 0}, "tle": {"line1": "1 38062U 93036BRU 25340.17544854  .00037877  00000+0  35054-2 0  9992", "line2": "2 38062  74.0094 303.7202 0012234  72.1633 298.7726 14.94290132629324"}}, "geometry": {"type": "Point", "coordinates": [64.16132780812084, 68.53561533355817]}}, {"type": "Feature", "properties": {"norad_id": 38064, "name": "COSMOS 2251 DEB", "group": "cosmos-2251-debris", "lat": 55.42720507230535, "lon": 149.1874655765413, "alt_km": 733.0271547737975, "timestamp": "2025-12-12T11:38:31.810712+00:00", "meta": {"OBJECT_NAME": "COSMOS 2251 DEB", "OBJECT_ID": "1993-036BRW", "EPOCH": "2025-12-11T15:35:10.141152", "MEAN_MOTION": 14.5628474, "ECCENTRICITY": 0.00474911, "INCLINATION": 74.0221, "RA_OF_ASC_NODE": 126.2067, "ARG_OF_PERICENTER": 246.0166, "MEAN_ANOMALY": 113.6022, "EPHEMERIS_TYPE": 0, "CLASSIFICATION_TYPE": "U", "NORAD_CAT_ID": 38064, "ELEMENT_SET_NO": 999, "REV_AT_EPOCH": 71849, "BSTAR": 0.001607911, "MEAN_MOTION_DOT": 7.206e-05, "MEAN_MOTION_DDOT": 0}, "tle": {"line1": "1 38064U 93036BRW 25345.64942293  .00007206  00000+0  16079-2 0  9999", "line2": "2 38064  74.0221 126.2067 0047491 246.0166 113.6022 14.56284740718498"}}, "geometry": {"type": "Point", "coordinates": [149.1874655765413, 55.42720507230535]}}, {"type": "Feature", "properties": {"norad_id": 38067, "name": "COSMOS 2251 DEB", "group": "cosmos-2251-debris", "lat": 32.80236063199874, "lon": -74.36394246122197, "alt_km": 644.0520799295318, "timestamp": "2025-12-12T11:38:31.810722+00:00", "meta": {"OBJECT_NAME": "COSMOS 2251 DEB", "OBJECT_ID": "1993-036BRZ", "EPOCH": "2025-12-11T13:16:36.500736", "MEAN_MOTION": 14.61119497, "ECCENTRICITY": 0.00693034, "INCLINATION": 74.0178, "RA_OF_ASC_NODE": 276.7742, "ARG_OF_PERICENTER": 64.8138, "MEAN_ANOMALY": 110.1896, "EPHEMERIS_TYPE": 0, "CLASSIFICATION_TYPE": "U", "NORAD_CAT_ID": 38067, "ELEMENT_SET_NO": 999, "REV_AT_EPOCH": 62538, "BSTAR": 0.00063774411, "MEAN_MOTION_DOT": 3.215e-05, "MEAN_MOTION_DDOT": 0}, "tle": {"line1": "1 38067U 93036BRZ 25345.55320024  .00003215  00000+0  63774-3 0  9995", "line2": "2 38067  74.0178 276.7742 0069303  64.8138 110.1896 14.61119497625382"}}, "geometry": {"type": "Point", "coordinates": [-74.36394246122197, 32.80236063199874]}}]}